OBJECT_NAME,OBJECT_ID,EPOCH,MEAN_MOTION,ECCENTRICITY,INCLINATION,RA_OF_ASC_NODE,ARG_OF_PERICENTER,MEAN_ANOMALY,EPHEMERIS_TYPE,CLASSIFICATION_TYPE,NORAD_CAT_ID,ELEMENT_SET_NO,REV_AT_EPOCH,BSTAR,MEAN_MOTION_DOT,MEAN_MOTION_DDOT
CORVUS BC4,2018-099K,2026-07-08T02:14:01.959072,15.12664614,.0006524,97.4056,231.4618,292.0525,68.0013,0,U,43767,999,41556,.1176E-3,.1994E-4,0
M2 PATHFINDER,2020-037E,2026-07-07T23:51:29.413152,15.04775128,.0013299,97.8159,20.4606,84.3901,275.8841,0,U,45727,999,32862,.10783E-3,.1459E-4,0
NETSAT-4,2020-068U,2026-07-07T22:12:53.807328,15.44579365,.000386,97.8609,198.8425,224.2635,135.8304,0,U,46504,999,31897,.25088E-3,.11568E-3,0
NETSAT-3,2020-068V,2026-07-07T22:44:32.989920,15.43427557,.0003107,97.8657,197.0573,246.5118,113.5802,0,U,46505,999,31888,.25898E-3,.11486E-3,0
NETSAT-1,2020-068W,2026-07-07T22:22:19.081056,15.35130040,.0002579,97.8754,191.1236,307.9301,52.1707,0,U,46506,999,31848,.21084E-3,.7099E-4,0
NETSAT-2,2020-068X,2026-07-08T00:00:31.910112,15.46933432,.000142,97.8622,198.8969,252.4600,107.6493,0,U,46507,999,31895,.29455E-3,.14744E-3,0
GREENCUBE (IO-117),2022-080E,2026-07-08T04:41:06.595008,6.42583247,.0009007,70.1427,290.9400,285.1341,74.8322,0,U,53109,999,9341,0,-.3E-7,0
SITRO-AIS 5 (KATYS),2023-091L,2026-07-08T03:12:13.299264,15.29954358,.0011431,97.5048,253.2374,36.7981,323.4042,0,U,57176,999,16754,.2545E-3,.7316E-4,0
SITRO-AIS 6 (CHIRKIN),2023-091AC,2026-07-08T03:52:15.261600,15.26347398,.0011892,97.5056,252.2720,40.2771,319.9346,0,U,57192,999,16748,.22874E-3,.588E-4,0
SITRO-AIS 8 (ANOKHIN),2023-091AD,2026-07-08T04:17:11.313024,15.32729218,.0010247,97.5044,254.9584,32.6266,327.5607,0,U,57193,999,16766,.2873E-3,.9016E-4,0
SITRO-AIS 7 (FARTUSHNIY),2023-091AE,2026-07-08T04:03:03.231360,15.26025762,.001185,97.5052,252.0935,41.3871,318.8263,0,U,57194,999,16747,.2386E-3,.6077E-4,0
SITRO-AIS 10 (BURDAEV),2023-091AK,2026-07-08T04:26:57.866208,15.39438989,.0005519,97.5068,260.2399,9.8877,350.2476,0,U,57199,999,16799,.34345E-3,.13381E-3,0
SITRO-AIS 9 (SHCHUKIN),2023-091AM,2026-07-08T03:41:09.074400,15.38926980,.0005809,97.5067,259.9205,10.0589,350.0771,0,U,57201,999,16797,.32184E-3,.12324E-3,0
SITRO-AIS 12 (SMIRENNIY),2023-091AQ,2026-07-08T03:21:54.029088,15.39219012,.0005325,97.5080,260.3873,3.9128,356.2158,0,U,57204,999,16799,.30813E-3,.11907E-3,0
SITRO-AIS 11 (SHEFFER),2023-091AU,2026-07-08T03:32:45.686400,15.39660664,.0005219,97.5078,260.6549,3.4681,356.6600,0,U,57208,999,16801,.32245E-3,.12647E-3,0
SITRO-AIS 25,2024-039R,2026-07-08T05:05:40.960896,14.93618030,.0142402,95.3897,249.5408,254.2565,104.2916,0,U,59066,999,12786,.86357E-4,.1076E-4,0
SITRO-AIS 26,2024-039S,2026-07-08T05:11:49.473312,14.93408157,.0142725,95.3897,249.4369,254.8696,103.6705,0,U,59067,999,12785,.134E-3,.1682E-4,0
SITRO-AIS 27,2024-039T,2026-07-08T04:20:27.913632,14.93832052,.0141813,95.3902,249.6940,253.5301,105.0301,0,U,59068,999,12787,.1843E-3,.2349E-4,0
SITRO-AIS 28,2024-039U,2026-07-08T05:23:45.412224,14.93864957,.0141679,95.3901,249.7725,253.2151,105.3491,0,U,59071,999,12788,.14511E-3,.1842E-4,0
GRBBETA,2024-128C,2026-07-07T11:04:37.710912,15.06772780,.00379974,61.9890,145.1259,138.9442,221.4522,0,U,60237,999,10932,.17646117E-3,.246E-4,0
OOV-CUBE (TUBSAT-30),2024-128F,2026-07-06T10:01:45.352992,15.02848993,.00422051,61.9939,158.5121,138.0070,222.4270,0,U,60240,999,10900,.16592493E-3,.2062E-4,0
ROBUSTA-3A (MEDITERRANEE),2024-128J,2026-07-07T23:16:27.409152,15.11915362,.0038797,61.9855,134.7365,132.3778,228.0613,0,U,60243,999,10956,.24001E-3,.3976E-4,0
LASARSAT,2024-247Q,2026-07-07T23:05:59.256096,15.47683321,.0006527,44.9724,145.3589,113.9760,246.1814,0,U,62391,999,8653,.42253E-3,.22052E-3,0
CROCUBE,2024-247T,2026-07-05T08:31:43.923072,15.49608608,.0006223,44.9708,157.0633,99.0627,261.0968,0,U,62394,999,8616,.11046E-2,.62671E-3,0
FORESAIL-1 PRIME,2025-276DS,2026-07-07T17:59:57.872832,15.18895073,.0003396,97.4189,261.6460,60.7942,299.3632,0,U,66778,999,3352,.17882E-3,.3663E-4,0
KNACKSAT-2,1998-067XZ,2026-07-06T10:19:34.257504,15.61755488,.00082597,51.6265,197.5608,296.8985,63.1164,0,U,67683,999,2328,.57854596E-3,.50889E-3,0
